GLOBALSTAR M079 [+]     
1 37188U 10054A   22033.19967312 -.00000075  00000+0  16244-3 0  9997
2 37188  52.0039 287.1185 0000927  67.3577  71.3071 12.62268483521675
GLOBALSTAR M074 [+]     
1 37189U 10054B   22032.89640611 -.00000077  00000+0  15041-3 0  9990
2 37189  52.0017 287.5571 0000937  63.1657  16.0021 12.62266866521561
GLOBALSTAR M076 [+]     
1 37190U 10054C   22032.92275615 -.00000073  00000+0  17355-3 0  9990
2 37190  52.0030 287.5345 0001078  93.7172 345.4984 12.62255561521281
GLOBALSTAR M077 [+]     
1 37191U 10054D   22033.16490449 -.00000094  00000+0  55476-4 0  9992
2 37191  52.0048 243.2984 0000928  80.8481  79.2914 12.62274767522423
GLOBALSTAR M075 [+]     
1 37192U 10054E   22032.76174837 -.00000082  00000+0  11888-3 0  9993
2 37192  51.9968 330.9604 0000664  71.6372 297.5100 12.62269021520494
GLOBALSTAR M073 [+]     
1 37193U 10054F   22033.49024174 -.00000094  00000+0  52766-4 0  9997
2 37193  52.0035 241.6279 0000986  82.1956 357.9712 12.62269648522464
GLOBALSTAR M083 [+]     
1 37739U 11033A   22032.79210119 -.00000110  00000+0 -34273-4 0  9992
2 37739  51.9836 194.1643 0001135  82.5113   3.8842 12.62266261491341
GLOBALSTAR M088 [+]     
1 37740U 11033B   22033.22948084 -.00000092  00000+0  63238-4 0  9993
2 37740  51.9735  99.3589 0000875 107.9630 287.3413 12.62270347487238
GLOBALSTAR M091 [+]     
1 37741U 11033C   22033.50607289 -.00000090  00000+0  78632-4 0  9996
2 37741  52.0006  59.8672 0000555  99.8558  52.9812 12.62269371488021
GLOBALSTAR M085 [+]     
1 37742U 11033D   22033.41612645 -.00000101  00000+0  17082-4 0  9994
2 37742  51.9887  12.2698 0000412  77.7395  86.3738 12.62263554488759
GLOBALSTAR M081 [+]     
1 37743U 11033E   22032.93742403 -.00000107  00000+0 -18729-4 0  9993
2 37743  51.9978  15.7573 0000525  91.2096 294.8957 12.62268021488354
GLOBALSTAR M089 [+]     
1 37744U 11033F   22033.24143287 -.00000087  00000+0  96284-4 0  9992
2 37744  51.9951 329.2911 0000299  93.9293  55.6158 12.62263673489480
GLOBALSTAR M084 [+]     
1 38040U 11080A   22033.48319696 -.00000123  00000+0 -10813-3 0  9994
2 38040  51.9983 195.1918 0000995 105.9471   2.3799 12.62270491467524
GLOBALSTAR M080 [+]     
1 38041U 11080B   22033.52181589 -.00000129  00000+0 -14340-3 0  9993
2 38041  52.0037 196.2501 0001042 108.9212 293.9070 12.62266502467514
GLOBALSTAR M082 [+]     
1 38042U 11080C   22032.76720880 -.00000120  00000+0 -90486-4 0  9999
2 38042  52.0065 153.8631 0000932  81.3634  70.8375 12.62268143467982
GLOBALSTAR M092 [+]     
1 38043U 11080D   22032.88790183 -.00000078  00000+0  14155-3 0  9995
2 38043  52.0061 243.8062 0000637  89.4865  11.7816 12.62270819466452
GLOBALSTAR M090 [+]     
1 38044U 11080E   22032.60422249 -.00000119  00000+0 -86830-4 0  9998
2 38044  51.9877 149.7536 0001029  99.3190 273.3734 12.62266033468127
GLOBALSTAR M086 [+]     
1 38045U 11080F   22032.90036476 -.00000122  00000+0 -99073-4 0  9992
2 38045  51.9888 149.3067 0002196 116.9382  42.3311 12.62268756468062
GLOBALSTAR M097 [+]     
1 39072U 13005A   22033.05021644 -.00000084  00000+0  10859-3 0  9990
2 39072  52.0056  62.1432 0000769  99.1046 260.9908 12.62261808415415
GLOBALSTAR M093 [+]     
1 39073U 13005B   22033.49888118 -.00000095  00000+0  50754-4 0  9997
2 39073  51.9820  56.0522 0000788  95.2369 264.8588 12.62267989415469
GLOBALSTAR M094 [+]     
1 39074U 13005C   22032.86560080 -.00000083  00000+0  11572-3 0  9994
2 39074  51.9978 331.1365 0000610  68.4859 291.6073 12.62265024416877
GLOBALSTAR M096 [+]     
1 39075U 13005D   22033.11653417 -.00000102  00000+0  83106-5 0  9997
2 39075  52.0093  17.9234 0000545  89.2783 270.8146 12.62266325416174
GLOBALSTAR M078 [+]     
1 39076U 13005E   22032.69387258 -.00000074  00000+0  16827-3 0  9999
2 39076  51.9875 105.3929 0000594  28.6807 331.4092 12.62266225414397
GLOBALSTAR M095 [+]     
1 39077U 13005F   22032.87896498 -.00000103  00000+0  23938-5 0  9997
2 39077  51.9806 102.6401 0000726  72.0206 288.0739 12.62267029414275
